NORAD_CAT_ID,OBJECT_NAME,OBJECT_TYPE,EPOCH,MEAN_MOTION,ECCENTRICITY,INCLINATION,RA_OF_ASC_NODE,ARG_OF_PERICENTER,MEAN_ANOMALY,BSTAR,MEAN_MOTION_DOT,MEAN_MOTION_DDOT,TLE_LINE0,TLE_LINE1,TLE_LINE2,SEMIMAJOR_AXIS,PERIOD,APOGEE,PERIGEE,DECAYED
52275.0,STARLINK-3784,PAYLOAD,2023-10-29 12:02:27,15.08879431,0.0001657,53.2176,19.6356,75.9125,284.2052,0.0017415,0.00027567,0.0,0 STARLINK-3784,1 52275U 22041Q   23302.50170500  .00027567  00000-0  17415-2 0  9995,2 52275  53.2176  19.6356 0001657  75.9125 284.2052 15.08879431 85412,6917.76,95.435,540.771,538.479,0.0
52275.0,STARLINK-3784,PAYLOAD,2023-10-30 03:56:19,15.08850215,0.0001838,53.2175,16.6619,69.6156,290.5034,0.0012529,0.00019714,0.0,0 STARLINK-3784,1 52275U 22041Q   23303.16411058  .00019714  00000-0  12529-2 0  9990,2 52275  53.2175  16.6619 0001838  69.6156 290.5034 15.08850215 85515,6917.849,95.437,540.986,538.443,0.0
52275.0,STARLINK-3784,PAYLOAD,2023-10-30 11:53:14,15.08844074,0.0001454,53.2177,15.1753,67.1182,292.9963,0.00097938,0.00015335,0.0,0 STARLINK-3784,1 52275U 22041Q   23303.49531132  .00015335  00000-0  97938-3 0  9995,2 52275  53.2177  15.1753 0001454  67.1182 292.9963 15.08844074 85564,6917.868,95.437,540.739,538.727,0.0
52275.0,STARLINK-3784,PAYLOAD,2023-10-31 10:08:39,15.0883307,0.000165,53.2186,11.0142,91.1523,268.9658,0.00051678,7.945e-05,0.0,0 STARLINK-3784,1 52275U 22041Q   23304.42268045  .00007945  00000-0  51678-3 0  9998,2 52275  53.2186  11.0142 0001650  91.1523 268.9658 15.08833070 85709,6917.902,95.438,540.908,538.625,0.0
52275.0,STARLINK-3784,PAYLOAD,2023-10-31 14:54:48,15.08845031,0.0001576,53.2182,10.1198,83.7997,276.3175,0.00087482,0.00013664,0.0,0 STARLINK-3784,1 52275U 22041Q   23304.62139989  .00013664  00000-0  87482-3 0  9991,2 52275  53.2182  10.1198 0001576  83.7997 276.3175 15.08845031 84521,6917.865,95.437,540.82,538.64,0.0
52275.0,STARLINK-3784,PAYLOAD,2023-11-01 11:34:49,15.08843141,0.000167,53.2176,6.2562,85.0057,275.1125,0.00041997,6.403e-05,0.0,0 STARLINK-3784,1 52275U 22041Q   23305.48252087  .00006403  00000-0  41997-3 0  9995,2 52275  53.2176   6.2562 0001670  85.0057 275.1125 15.08843141 85862,6917.871,95.437,540.891,538.581,0.0
52275.0,STARLINK-3784,PAYLOAD,2023-11-01 21:07:08,15.08843159,0.0001697,53.2175,4.4713,95.0797,265.0388,0.00028832,4.304e-05,0.0,0 STARLINK-3784,1 52275U 22041Q   23305.87996022  .00004304  00000-0  28832-3 0  9993,2 52275  53.2175   4.4713 0001697  95.0797 265.0388 15.08843159 84711,6917.871,95.437,540.91,538.562,0.0
52275.0,STARLINK-3784,PAYLOAD,2023-11-02 13:00:59,15.08849923,0.0001765,53.2182,1.4961,91.1189,269.0005,0.00022901,3.359e-05,0.0,0 STARLINK-3784,1 52275U 22041Q   23306.54235685  .00003359  00000-0  22901-3 0  9999,2 52275  53.2182   1.4961 0001765  91.1189 269.0005 15.08849923 86020,6917.85,95.437,540.936,538.494,0.0
52275.0,STARLINK-3784,PAYLOAD,2023-11-03 11:16:23,15.08842883,0.0001608,53.2168,357.3344,85.0735,275.044,4.9567e-05,5.01e-06,0.0,0 STARLINK-3784,1 52275U 22041Q   23307.46972107  .00000501  00000-0  49567-4 0  9992,2 52275  53.2168 357.3344 0001608  85.0735 275.0440 15.08842883 86160,6917.872,95.437,540.849,538.624,0.0
52275.0,STARLINK-3784,PAYLOAD,2023-11-03 20:48:42,15.08844676,0.0001611,53.2169,355.551,86.1691,273.9486,5.2941e-05,5.55e-06,0.0,0 STARLINK-3784,1 52275U 22041Q   23307.86716045  .00000555  00000-0  52941-4 0  9992,2 52275  53.2169 355.5510 0001611  86.1691 273.9486 15.08844676 85015,6917.866,95.437,540.846,538.617,0.0
52275.0,STARLINK-3784,PAYLOAD,2023-11-04 09:31:47,15.08847435,0.0001558,53.217,353.1702,101.4825,258.6342,0.00010048,1.312e-05,0.0,0 STARLINK-3784,1 52275U 22041Q   23308.39707786  .00001312  00000-0  10048-3 0  9996,2 52275  53.2170 353.1702 0001558 101.4825 258.6342 15.08847435 85099,6917.858,95.437,540.8,538.645,0.0
52275.0,STARLINK-3784,PAYLOAD,2023-11-04 20:39:29,15.08849355,0.000151,53.2169,351.0892,94.9803,265.1362,0.00013394,1.845e-05,0.0,0 STARLINK-3784,1 52275U 22041Q   23308.86075732  .00001845  00000-0  13394-3 0  9995,2 52275  53.2169 351.0892 0001510  94.9803 265.1362 15.08849355 86374,6917.852,95.437,540.761,538.672,0.0
52275.0,STARLINK-3784,PAYLOAD,2023-11-05 03:01:02,15.08843649,0.0001627,53.218,349.9015,93.6207,266.4971,0.00019275,2.781e-05,0.0,0 STARLINK-3784,1 52275U 22041Q   23309.12572165  .00002781  00000-0  19275-3 0  9991,2 52275  53.2180 349.9015 0001627  93.6207 266.4971 15.08843649 86418,6917.869,95.437,540.86,538.609,0.0
52275.0,STARLINK-3784,PAYLOAD,2023-11-05 12:33:20,15.08856275,0.0001891,53.2171,348.1143,100.7324,259.3881,0.00031696,4.762e-05,0.0,0 STARLINK-3784,1 52275U 22041Q   23309.52315485  .00004762  00000-0  31696-3 0  9997,2 52275  53.2171 348.1143 0001891 100.7324 259.3881 15.08856275 85266,6917.831,95.437,541.004,538.387,0.0
52275.0,STARLINK-3784,PAYLOAD,2023-11-05 23:41:02,15.08849321,0.0001722,53.2164,346.0333,98.7861,261.3326,0.00022342,3.27e-05,0.0,0 STARLINK-3784,1 52275U 22041Q   23309.98683733  .00003270  00000-0  22342-3 0  9992,2 52275  53.2164 346.0333 0001722  98.7861 261.3326 15.08849321 86544,6917.852,95.437,540.908,538.526,0.0
52275.0,STARLINK-3784,PAYLOAD,2023-11-06 09:13:20,15.08875027,0.0001659,53.2164,344.2492,84.3418,275.7763,0.0009882,0.00015489,0.0,0 STARLINK-3784,1 52275U 22041Q   23310.38426881  .00015489  00000-0  98820-3 0  9996,2 52275  53.2164 344.2492 0001659  84.3418 275.7763 15.08875027 86601,6917.773,95.435,540.786,538.491,0.0
52275.0,STARLINK-3784,PAYLOAD,2023-11-07 02:42:37,15.0881794,0.0001678,53.2172,340.9798,346.7521,13.3427,5.937e-05,6.56e-06,0.0,0 STARLINK-3784,1 52275U 22041Q   23311.11293157  .00000656  00000-0  59370-4 0  9994,2 52275  53.2172 340.9798 0001678 346.7521  13.3427 15.08817940 86718,6917.948,95.439,540.974,538.652,0.0
52275.0,STARLINK-3784,PAYLOAD,2023-11-07 09:04:10,15.08787092,0.0001217,53.2177,339.791,102.4816,257.6312,0.0011475,0.00017995,0.0,0 STARLINK-3784,1 52275U 22041Q   23311.37790009  .00017995  00000-0  11475-2 0  9996,2 52275  53.2177 339.7910 0001217 102.4816 257.6312 15.08787092 86752,6918.042,95.441,540.749,539.065,0.0
52275.0,STARLINK-3784,PAYLOAD,2023-11-07 18:36:30,15.08765829,0.0002216,53.2175,338.0051,100.9644,259.1598,-0.0010704,-0.00017249,0.0,0 STARLINK-3784,1 52275U 22041Q   23311.77535530 -.00017249  00000-0 -10704-2 0  9994,2 52275  53.2175 338.0051 0002216 100.9644 259.1598 15.08765829 86814,6918.107,95.442,541.505,538.439,0.0
52275.0,STARLINK-3784,PAYLOAD,2023-11-07 23:22:38,15.08889222,0.0001593,53.2185,337.1188,141.8786,218.2319,0.0040195,0.00064354,0.0,0 STARLINK-3784,1 52275U 22041Q   23311.97405275  .00064354  00000-0  40195-2 0  9992,2 52275  53.2185 337.1188 0001593 141.8786 218.2319 15.08889222 86848,6917.73,95.434,540.697,538.493,0.0
52275.0,STARLINK-3784,PAYLOAD,2023-11-08 07:19:34,15.08861609,0.0001615,53.2181,335.6312,116.1654,243.9505,0.0015585,0.00024617,0.0,0 STARLINK-3784,1 52275U 22041Q   23312.30525904  .00024617  00000-0  15585-2 0  9995,2 52275  53.2181 335.6312 0001615 116.1654 243.9505 15.08861609 86896,6917.814,95.436,540.797,538.562,0.0
52275.0,STARLINK-3784,PAYLOAD,2023-11-08 12:05:43,15.08863186,0.0001267,53.2179,334.7385,96.7736,263.34,0.0013259,0.0002089,0.0,0 STARLINK-3784,1 52275U 22041Q   23312.50397585  .00020890  00000-0  13259-2 0  9994,2 52275  53.2179 334.7385 0001267  96.7736 263.3400 15.08863186 85712,6917.81,95.436,540.551,538.798,0.0
52275.0,STARLINK-3784,PAYLOAD,2023-11-08 18:27:15,15.08859431,8.55e-05,53.2178,333.5495,155.2756,204.8277,0.00047073,7.216e-05,0.0,0 STARLINK-3784,1 52275U 22041Q   23312.76892907  .00007216  00000-0  47073-3 0  9999,2 52275  53.2178 333.5495 0000855 155.2756 204.8277 15.08859431 86963,6917.821,95.436,540.277,539.095,0.0
52275.0,STARLINK-3784,PAYLOAD,2023-11-09 00:48:47,15.08878563,8.94e-05,53.2181,332.3626,69.3303,290.7785,0.001313,0.00020692,0.0,0 STARLINK-3784,1 52275U 22041Q   23313.03388854  .00020692  00000-0  13130-2 0  9990,2 52275  53.2181 332.3626 0000894  69.3303 290.7785 15.08878563 87007,6917.763,95.435,540.246,539.009,0.0
52275.0,STARLINK-3784,PAYLOAD,2023-11-09 10:21:06,15.08873724,0.0001134,53.217,330.5763,75.8159,284.2959,0.0010889,0.000171,0.0,0 STARLINK-3784,1 52275U 22041Q   23313.43132595  .00017100  00000-0  10889-2 0  9991,2 52275  53.2170 330.5763 0001134  75.8159 284.2959 15.08873724 87067,6917.777,95.435,540.427,538.858,0.0
52275.0,STARLINK-3784,PAYLOAD,2023-11-09 18:18:02,15.08848952,0.0001037,53.2167,329.0859,92.3601,267.751,0.00032828,4.942e-05,0.0,0 STARLINK-3784,1 52275U 22041Q   23313.76252828  .00004942  00000-0  32828-3 0  9997,2 52275  53.2167 329.0859 0001037  92.3601 267.7510 15.08848952 87110,6917.853,95.437,540.435,539.001,0.0
52275.0,STARLINK-3784,PAYLOAD,2023-11-09 23:04:12,15.08838458,0.0001405,53.2158,328.1959,84.6402,275.475,-4.5805e-05,-1.017e-05,0.0,0 STARLINK-3784,1 52275U 22041Q   23313.96125151 -.00001017  00000-0 -45805-4 0  9999,2 52275  53.2158 328.1959 0001405  84.6402 275.4750 15.08838458 87148,6917.885,95.438,540.722,538.778,0.0
52275.0,STARLINK-3784,PAYLOAD,2023-11-10 10:11:53,15.08850978,0.0001371,53.2155,326.11,84.1411,275.9737,0.00062728,9.712e-05,0.0,0 STARLINK-3784,1 52275U 22041Q   23314.42492956  .00009712  00000-0  62728-3 0  9991,2 52275  53.2155 326.1100 0001371  84.1411 275.9737 15.08850978 86003,6917.847,95.437,540.66,538.763,0.0
52275.0,STARLINK-3784,PAYLOAD,2023-11-10 18:08:49,15.08842051,0.0001454,53.2169,324.6224,94.4272,265.6886,0.00025853,3.829e-05,0.0,0 STARLINK-3784,1 52275U 22041Q   23314.75613086  .00003829  00000-0  25853-3 0  9997,2 52275  53.2169 324.6224 0001454  94.4272 265.6886 15.08842051 86058,6917.874,95.437,540.745,538.733,0.0
52275.0,STARLINK-3784,PAYLOAD,2023-11-11 00:30:22,15.0883871,0.000147,53.216,323.4336,90.8414,269.2747,-1.538e-05,-5.33e-06,0.0,0 STARLINK-3784,1 52275U 22041Q   23315.02109250 -.00000533  00000-0 -15380-4 0  9997,2 52275  53.2160 323.4336 0001470  90.8414 269.2747 15.08838710 87308,6917.884,95.438,540.766,538.732,0.0
